STARLINK-31735          
1 60054U 24112S   26044.78083464 -.00001038  00000+0 -22924-4 0  9997
2 60054  53.1621 189.2132 0001635  74.1629 285.9552 15.30193137 94939
STARLINK-31788          
1 60055U 24112T   26044.77766653 -.00000219  00000+0  47418-5 0  9990
2 60055  53.1598 189.1975 0001722  65.0717 295.0463 15.30197708 94932
STARLINK-31825          
1 60056U 24112U   26044.71868947 -.00002304  00000+0 -65682-4 0  9994
2 60056  53.1593 189.5459 0001622  66.2566 293.8604 15.30200561 94927
STARLINK-31437          
1 60057U 24112V   26044.65969625 -.00000479  00000+0 -40431-5 0  9990
2 60057  53.1592 189.8850 0001213 100.5883 259.5255 15.30189867 94910
STARLINK-11181 [DTC]    
1 60059U 24113A   26044.90424209  .00001761  00000+0  19381-4 0  9997
2 60059  53.1575 308.5952 0000666 102.7006 257.4086 15.69711280 95820
STARLINK-11176 [DTC]    
1 60060U 24113B   26044.89933960 -.00000374  00000+0  17640-5 0  9993
2 60060  53.1588 308.5644 0000800 128.0027 232.1064 15.69718190 95821
STARLINK-11167 [DTC]    
1 60061U 24113C   26044.70343036  .00000850  00000+0  11874-4 0  9993
2 60061  53.1585 309.4724 0000957  66.6285 293.4833 15.69703578 96092
STARLINK-11166 [DTC]    
1 60062U 24113D   26044.12550950 -.00001786  00000+0 -98937-5 0  9992
2 60062  53.1594 312.2656 0000843 113.5210 246.5896 15.69704173 95700
STARLINK-11165 [DTC]    
1 60063U 24113E   26044.75728378  .00001052  00000+0  13533-4 0  9995
2 60063  53.1589 309.0937 0000913  61.4762 298.6347 15.69716083 95805
STARLINK-11169 [DTC]    
1 60064U 24113F   26044.94339634  .00000899  00000+0  12285-4 0  9991
2 60064  53.1599 308.1193 0001385  73.3184 286.7986 15.69708303 95831
STARLINK-11102 [DTC]    
1 60065U 24113G   26044.93848417  .00000682  00000+0  10490-4 0  9991
2 60065  53.1584 308.0828 0001068  46.3792 313.7315 15.69709932 95839
STARLINK-11141 [DTC]    
1 60066U 24113H   26044.93358001  .00001234  00000+0  15035-4 0  9991
2 60066  53.1569 308.0526 0000838 115.1167 244.9938 15.69714163 95831
STARLINK-11153 [DTC]    
1 60067U 24113J   26044.92877279  .00003264  00000+0  31787-4 0  9991
2 60067  53.1591 308.7579 0001021  80.8994 279.2139 15.69709220 95824
STARLINK-11170 [DTC]    
1 60068U 24113K   26044.92386460  .00001566  00000+0  17779-4 0  9997
2 60068  53.1571 308.7207 0000942 124.8786 235.2321 15.69712211 95829
STARLINK-11171 [DTC]    
1 60069U 24113L   26044.91896800  .00000635  00000+0  10097-4 0  9993
2 60069  53.1581 308.6868 0000897 111.6369 248.4745 15.69702878 95827
STARLINK-11186 [DTC]    
1 60070U 24113M   26044.91405692  .00000796  00000+0  11430-4 0  9990
2 60070  53.1593 308.6507 0001357  58.0142 302.1008 15.69711118 96230
