[{"OBJECT_NAME":"STARLINK-31735","OBJECT_ID":"2024-112S","EPOCH":"2026-02-13T18:44:24.112896","MEAN_MOTION":15.30193137,"ECCENTRICITY":0.00016351,"INCLINATION":53.1621,"RA_OF_ASC_NODE":189.2132,"ARG_OF_PERICENTER":74.1629,"MEAN_ANOMALY":285.9552,"EPHEMERIS_TYPE":0,"CLASSIFICATION_TYPE":"U","NORAD_CAT_ID":60054,"ELEMENT_SET_NO":999,"REV_AT_EPOCH":9493,"BSTAR":-2.2924021e-5,"MEAN_MOTION_DOT":-1.038e-5,"MEAN_MOTION_DDOT":0},{"OBJECT_NAME":"STARLINK-31788","OBJECT_ID":"2024-112T","EPOCH":"2026-02-13T18:39:50.388192","MEAN_MOTION":15.30197708,"ECCENTRICITY":0.00017222,"INCLINATION":53.1598,"RA_OF_ASC_NODE":189.1975,"ARG_OF_PERICENTER":65.0717,"MEAN_ANOMALY":295.0463,"EPHEMERIS_TYPE":0,"CLASSIFICATION_TYPE":"U","NORAD_CAT_ID":60055,"ELEMENT_SET_NO":999,"REV_AT_EPOCH":9493,"BSTAR":4.741772e-6,"MEAN_MOTION_DOT":-2.19e-6,"MEAN_MOTION_DDOT":0},{"OBJECT_NAME":"STARLINK-31825","OBJECT_ID":"2024-112U","EPOCH":"2026-02-13T17:14:54.770208","MEAN_MOTION":15.30200561,"ECCENTRICITY":0.00016221,"INCLINATION":53.1593,"RA_OF_ASC_NODE":189.5459,"ARG_OF_PERICENTER":66.2566,"MEAN_ANOMALY":293.8604,"EPHEMERIS_TYPE":0,"CLASSIFICATION_TYPE":"U","NORAD_CAT_ID":60056,"ELEMENT_SET_NO":999,"REV_AT_EPOCH":9492,"BSTAR":-6.5682353e-5,"MEAN_MOTION_DOT":-2.304e-5,"MEAN_MOTION_DDOT":0},{"OBJECT_NAME":"STARLINK-31437","OBJECT_ID":"2024-112V","EPOCH":"2026-02-13T15:49:57.756000","MEAN_MOTION":15.30189867,"ECCENTRICITY":0.0001213,"INCLINATION":53.1592,"RA_OF_ASC_NODE":189.885,"ARG_OF_PERICENTER":100.5883,"MEAN_ANOMALY":259.5255,"EPHEMERIS_TYPE":0,"CLASSIFICATION_TYPE":"U","NORAD_CAT_ID":60057,"ELEMENT_SET_NO":999,"REV_AT_EPOCH":9491,"BSTAR":-4.043071e-6,"MEAN_MOTION_DOT":-4.79e-6,"MEAN_MOTION_DDOT":0},{"OBJECT_NAME":"STARLINK-11181 [DTC]","OBJECT_ID":"2024-113A","EPOCH":"2026-02-13T21:42:06.516576","MEAN_MOTION":15.6971128,"ECCENTRICITY":6.662e-5,"INCLINATION":53.1575,"RA_OF_ASC_NODE":308.5952,"ARG_OF_PERICENTER":102.7006,"MEAN_ANOMALY":257.4086,"EPHEMERIS_TYPE":0,"CLASSIFICATION_TYPE":"U","NORAD_CAT_ID":60059,"ELEMENT_SET_NO":999,"REV_AT_EPOCH":9582,"BSTAR":1.9380874e-5,"MEAN_MOTION_DOT":1.761e-5,"MEAN_MOTION_DDOT":0},{"OBJECT_NAME":"STARLINK-11176 [DTC]","OBJECT_ID":"2024-113B","EPOCH":"2026-02-13T21:35:02.941440","MEAN_MOTION":15.6971819,"ECCENTRICITY":8.003e-5,"INCLINATION":53.1588,"RA_OF_ASC_NODE":308.5644,"ARG_OF_PERICENTER":128.0027,"MEAN_ANOMALY":232.1064,"EPHEMERIS_TYPE":0,"CLASSIFICATION_TYPE":"U","NORAD_CAT_ID":60060,"ELEMENT_SET_NO":999,"REV_AT_EPOCH":9582,"BSTAR":1.764008e-6,"MEAN_MOTION_DOT":-3.74e-6,"MEAN_MOTION_DDOT":0},{"OBJECT_NAME":"STARLINK-11167 [DTC]","OBJECT_ID":"2024-113C","EPOCH":"2026-02-13T16:52:56.383104","MEAN_MOTION":15.69703578,"ECCENTRICITY":9.572e-5,"INCLINATION":53.1585,"RA_OF_ASC_NODE":309.4724,"ARG_OF_PERICENTER":66.6285,"MEAN_ANOMALY":293.4833,"EPHEMERIS_TYPE":0,"CLASSIFICATION_TYPE":"U","NORAD_CAT_ID":60061,"ELEMENT_SET_NO":999,"REV_AT_EPOCH":9609,"BSTAR":1.1874027e-5,"MEAN_MOTION_DOT":8.5e-6,"MEAN_MOTION_DDOT":0},{"OBJECT_NAME":"STARLINK-11166 [DTC]","OBJECT_ID":"2024-113D","EPOCH":"2026-02-13T03:00:44.020800","MEAN_MOTION":15.69704173,"ECCENTRICITY":8.431e-5,"INCLINATION":53.1594,"RA_OF_ASC_NODE":312.2656,"ARG_OF_PERICENTER":113.521,"MEAN_ANOMALY":246.5896,"EPHEMERIS_TYPE":0,"CLASSIFICATION_TYPE":"U","NORAD_CAT_ID":60062,"ELEMENT_SET_NO":999,"REV_AT_EPOCH":9570,"BSTAR":-9.893736e-6,"MEAN_MOTION_DOT":-1.786e-5,"MEAN_MOTION_DDOT":0},{"OBJECT_NAME":"STARLINK-11165 [DTC]","OBJECT_ID":"2024-113E","EPOCH":"2026-02-13T18:10:29.318592","MEAN_MOTION":15.69716083,"ECCENTRICITY":9.138e-5,"INCLINATION":53.1589,"RA_OF_ASC_NODE":309.0937,"ARG_OF_PERICENTER":61.4762,"MEAN_ANOMALY":298.6347,"EPHEMERIS_TYPE":0,"CLASSIFICATION_TYPE":"U","NORAD_CAT_ID":60063,"ELEMENT_SET_NO":999,"REV_AT_EPOCH":9580,"BSTAR":1.3533298e-5,"MEAN_MOTION_DOT":1.052e-5,"MEAN_MOTION_DDOT":0},{"OBJECT_NAME":"STARLINK-11169 [DTC]","OBJECT_ID":"2024-113F","EPOCH":"2026-02-13T22:38:29.443776","MEAN_MOTION":15.69708303,"ECCENTRICITY":0.00013855,"INCLINATION":53.1599,"RA_OF_ASC_NODE":308.1193,"ARG_OF_PERICENTER":73.3184,"MEAN_ANOMALY":286.7986,"EPHEMERIS_TYPE":0,"CLASSIFICATION_TYPE":"U","NORAD_CAT_ID":60064,"ELEMENT_SET_NO":999,"REV_AT_EPOCH":9583,"BSTAR":1.2285349e-5,"MEAN_MOTION_DOT":8.99e-6,"MEAN_MOTION_DDOT":0},{"OBJECT_NAME":"STARLINK-11102 [DTC]","OBJECT_ID":"2024-113G","EPOCH":"2026-02-13T22:31:25.032288","MEAN_MOTION":15.69709932,"ECCENTRICITY":0.00010688,"INCLINATION":53.1584,"RA_OF_ASC_NODE":308.0828,"ARG_OF_PERICENTER":46.3792,"MEAN_ANOMALY":313.7315,"EPHEMERIS_TYPE":0,"CLASSIFICATION_TYPE":"U","NORAD_CAT_ID":60065,"ELEMENT_SET_NO":999,"REV_AT_EPOCH":9583,"BSTAR":1.0490223e-5,"MEAN_MOTION_DOT":6.82e-6,"MEAN_MOTION_DDOT":0},{"OBJECT_NAME":"STARLINK-11141 [DTC]","OBJECT_ID":"2024-113H","EPOCH":"2026-02-13T22:24:21.312864","MEAN_MOTION":15.69714163,"ECCENTRICITY":8.384e-5,"INCLINATION":53.1569,"RA_OF_ASC_NODE":308.0526,"ARG_OF_PERICENTER":115.1167,"MEAN_ANOMALY":244.9938,"EPHEMERIS_TYPE":0,"CLASSIFICATION_TYPE":"U","NORAD_CAT_ID":60066,"ELEMENT_SET_NO":999,"REV_AT_EPOCH":9583,"BSTAR":1.503541e-5,"MEAN_MOTION_DOT":1.234e-5,"MEAN_MOTION_DDOT":0},{"OBJECT_NAME":"STARLINK-11153 [DTC]","OBJECT_ID":"2024-113J","EPOCH":"2026-02-13T22:17:25.969056","MEAN_MOTION":15.6970922,"ECCENTRICITY":0.00010211,"INCLINATION":53.1591,"RA_OF_ASC_NODE":308.7579,"ARG_OF_PERICENTER":80.8994,"MEAN_ANOMALY":279.2139,"EPHEMERIS_TYPE":0,"CLASSIFICATION_TYPE":"U","NORAD_CAT_ID":60067,"ELEMENT_SET_NO":999,"REV_AT_EPOCH":9582,"BSTAR":3.1786606e-5,"MEAN_MOTION_DOT":3.264e-5,"MEAN_MOTION_DDOT":0},{"OBJECT_NAME":"STARLINK-11170 [DTC]","OBJECT_ID":"2024-113K","EPOCH":"2026-02-13T22:10:21.901440","MEAN_MOTION":15.69712211,"ECCENTRICITY":9.423e-5,"INCLINATION":53.1571,"RA_OF_ASC_NODE":308.7207,"ARG_OF_PERICENTER":124.8786,"MEAN_ANOMALY":235.2321,"EPHEMERIS_TYPE":0,"CLASSIFICATION_TYPE":"U","NORAD_CAT_ID":60068,"ELEMENT_SET_NO":999,"REV_AT_EPOCH":9582,"BSTAR":1.7779018e-5,"MEAN_MOTION_DOT":1.566e-5,"MEAN_MOTION_DDOT":0},{"OBJECT_NAME":"STARLINK-11171 [DTC]","OBJECT_ID":"2024-113L","EPOCH":"2026-02-13T22:03:18.835200","MEAN_MOTION":15.69702878,"ECCENTRICITY":8.97e-5,"INCLINATION":53.1581,"RA_OF_ASC_NODE":308.6868,"ARG_OF_PERICENTER":111.6369,"MEAN_ANOMALY":248.4745,"EPHEMERIS_TYPE":0,"CLASSIFICATION_TYPE":"U","NORAD_CAT_ID":60069,"ELEMENT_SET_NO":999,"REV_AT_EPOCH":9582,"BSTAR":1.0096921e-5,"MEAN_MOTION_DOT":6.35e-6,"MEAN_MOTION_DDOT":0},{"OBJECT_NAME":"STARLINK-11186 [DTC]","OBJECT_ID":"2024-113M","EPOCH":"2026-02-13T21:56:14.517888","MEAN_MOTION":15.69711118,"ECCENTRICITY":0.00013577,"INCLINATION":53.1593,"RA_OF_ASC_NODE":308.6507,"ARG_OF_PERICENTER":58.0142,"MEAN_ANOMALY":302.1008,"EPHEMERIS_TYPE":0,"CLASSIFICATION_TYPE":"U","NORAD_CAT_ID":60070,"ELEMENT_SET_NO":999,"REV_AT_EPOCH":9623,"BSTAR":1.1429863e-5,"MEAN_MOTION_DOT":7.96e-6,"MEAN_MOTION_DDOT":0}]
